[Satellite]
VERSION=1.1
NAME=SATMEX 5
NICKNAME=SATMEX 5
TLE1=1 25558U 98070A   11057.43002127 -.00000033  00000-0  10000-3 0  7575
TLE2=2 25558   0.0151 170.5084 0002689 192.8720 190.5007  1.00271951 44997
